{"type": "FeatureCollection", "features": [ {"type": "Feature", "properties": {"norad_id": 60453, "name": "LEGION 4", "group": "resource", "lat": -12.729807795685618, "lon": 77.48482315694719, "alt_km": 519.0195553115063, "timestamp": "2025-12-03T15:48:02.759540+00:00", "meta": {"OBJECT_NAME": "LEGION 4", "OBJECT_ID": "2024-146B", "EPOCH": "2025-12-03T07:58:17.092128", "MEAN_MOTION": 15.15659669, "ECCENTRICITY": 0.00099081, "INCLINATION": 45.038, "RA_OF_ASC_NODE": 92.2809, "ARG_OF_PERICENTER": 262.1537, "MEAN_ANOMALY": 97.8218, "EPHEMERIS_TYPE": 0, "CLASSIFICATION_TYPE": "U", "NORAD_CAT_ID": 60453, "ELEMENT_SET_NO": 999, "REV_AT_EPOCH": 7115, "BSTAR": 0.0004645865, "MEAN_MOTION_DOT": 8.744e-05, "MEAN_MOTION_DDOT": 0}, "tle": {"line1": "1 60453U 24146B   25337.33214227  .00008744  00000+0  46459-3 0  9992", "line2": "2 60453  45.0380  92.2809 0009908 262.1537  97.8218 15.15659669 71154"}}, "geometry": {"type": "Point", "coordinates": [77.48482315694719, -12.729807795685618]}}, {"type": "Feature", "properties": {"norad_id": 60989, "name": "SENTINEL-2C", "group": "resource", "lat": 51.770063664012916, "lon": 39.247730321834915, "alt_km": 783.5919950186608, "timestamp": "2025-12-03T15:48:02.759550+00:00", "meta": {"OBJECT_NAME": "SENTINEL-2C", "OBJECT_ID": "2024-157A", "EPOCH": "2025-12-03T05:29:09.331008", "MEAN_MOTION": 14.30824002, "ECCENTRICITY": 0.00011466, "INCLINATION": 98.5614, "RA_OF_ASC_NODE": 49.849, "ARG_OF_PERICENTER": 101.9466, "MEAN_ANOMALY": 258.1845, "EPHEMERIS_TYPE": 0, "CLASSIFICATION_TYPE": "U", "NORAD_CAT_ID": 60989, "ELEMENT_SET_NO": 999, "REV_AT_EPOCH": 6496, "BSTAR": 0.00010974944, "MEAN_MOTION_DOT": 2.44e-06, "MEAN_MOTION_DDOT": 0}, "tle": {"line1": "1 60989U 24157A   25337.22858022  .00000244  00000+0  10975-3 0  9994", "line2": "2 60989  98.5614  49.8490 0001146 101.9466 258.1845 14.30824002 64962"}}, "geometry": {"type": "Point", "coordinates": [39.247730321834915, 51.770063664012916]}}, {"type": "Feature", "properties": {"norad_id": 61735, "name": "IONOSFERA-M 1", "group": "resource", "lat": -42.95319660157475, "lon": 19.34065964155902, "alt_km": 823.7752579335411, "timestamp": "2025-12-03T15:48:02.759560+00:00", "meta": {"OBJECT_NAME": "IONOSFERA-M 1", "OBJECT_ID": "2024-199A", "EPOCH": "2025-12-03T08:00:07.208928", "MEAN_MOTION": 14.22710607, "ECCENTRICITY": 0.0001377, "INCLINATION": 98.7409, "RA_OF_ASC_NODE": 207.2533, "ARG_OF_PERICENTER": 35.0349, "MEAN_ANOMALY": 325.092, "EPHEMERIS_TYPE": 0, "CLASSIFICATION_TYPE": "U", "NORAD_CAT_ID": 61735, "ELEMENT_SET_NO": 999, "REV_AT_EPOCH": 9985, "BSTAR": 7.2871097e-05, "MEAN_MOTION_DOT": 1.19e-06, "MEAN_MOTION_DDOT": 0}, "tle": {"line1": "1 61735U 24199A   25337.33341677  .00000119  00000+0  72871-4 0  9990", "line2": "2 61735  98.7409 207.2533 0001377  35.0349 325.0920 14.22710607 99857"}}, "geometry": {"type": "Point", "coordinates": [19.34065964155902, -42.95319660157475]}}, {"type": "Feature", "properties": {"norad_id": 61736, "name": "IONOSFERA-M 2", "group": "resource", "lat": 45.31157666941729, "lon": -161.45914492072566, "alt_km": 811.9855302268397, "timestamp": "2025-12-03T15:48:02.759569+00:00", "meta": {"OBJECT_NAME": "IONOSFERA-M 2", "OBJECT_ID": "2024-199B", "EPOCH": "2025-12-03T08:50:01.724064", "MEAN_MOTION": 14.22712694, "ECCENTRICITY": 0.0001378, "INCLINATION": 98.7407, "RA_OF_ASC_NODE": 207.2004, "ARG_OF_PERICENTER": 121.6247, "MEAN_ANOMALY": 238.5065, "EPHEMERIS_TYPE": 0, "CLASSIFICATION_TYPE": "U", "NORAD_CAT_ID": 61736, "ELEMENT_SET_NO": 999, "REV_AT_EPOCH": 10298, "BSTAR": 7.3782756e-05, "MEAN_MOTION_DOT": 1.21e-06, "MEAN_MOTION_DDOT": 0}, "tle": {"line1": "1 61736U 24199B   25337.36807551  .00000121  00000+0  73783-4 0  9998", "line2": "2 61736  98.7407 207.2004 0001378 121.6247 238.5065 14.22712694102984"}}, "geometry": {"type": "Point", "coordinates": [-161.45914492072566, 45.31157666941729]}}, {"type": "Feature", "properties": {"norad_id": 63772, "name": "BIOMASS", "group": "resource", "lat": -35.21803434373291, "lon": -22.949078144097477, "alt_km": 675.871714182419, "timestamp": "2025-12-03T15:48:02.759578+00:00", "meta": {"OBJECT_NAME": "BIOMASS", "OBJECT_ID": "2025-090A", "EPOCH": "2025-12-03T01:43:50.692800", "MEAN_MOTION": 14.67533272, "ECCENTRICITY": 0.00011595, "INCLINATION": 98.0704, "RA_OF_ASC_NODE": 162.2217, "ARG_OF_PERICENTER": 74.946, "MEAN_ANOMALY": 285.1873, "EPHEMERIS_TYPE": 0, "CLASSIFICATION_TYPE": "U", "NORAD_CAT_ID": 63772, "ELEMENT_SET_NO": 999, "REV_AT_EPOCH": 3192, "BSTAR": 0.00034238508, "MEAN_MOTION_DOT": 1.894e-05, "MEAN_MOTION_DDOT": 0}, "tle": {"line1": "1 63772U 25090A   25337.07211450  .00001894  00000+0  34239-3 0  9996", "line2": "2 63772  98.0704 162.2217 0001159  74.9460 285.1873 14.67533272 31921"}}, "geometry": {"type": "Point", "coordinates": [-22.949078144097477, -35.21803434373291]}}, {"type": "Feature", "properties": {"norad_id": 64694, "name": "GOSAT-GW (IBUKI GW)", "group": "resource", "lat": 63.10275472791166, "lon": -102.84420346403937, "alt_km": 661.6634314132743, "timestamp": "2025-12-03T15:48:02.759588+00:00", "meta": {"OBJECT_NAME": "GOSAT-GW (IBUKI GW)", "OBJECT_ID": "2025-141A", "EPOCH": "2025-11-30T05:41:32.267328", "MEAN_MOTION": 14.67567435, "ECCENTRICITY": 0.00014369, "INCLINATION": 98.0401, "RA_OF_ASC_NODE": 269.9775, "ARG_OF_PERICENTER": 82.921, "MEAN_ANOMALY": 277.2158, "EPHEMERIS_TYPE": 0, "CLASSIFICATION_TYPE": "U", "NORAD_CAT_ID": 64694, "ELEMENT_SET_NO": 999, "REV_AT_EPOCH": 2266, "BSTAR": 0.00019762357, "MEAN_MOTION_DOT": 1.074e-05, "MEAN_MOTION_DDOT": 0}, "tle": {"line1": "1 64694U 25141A   25334.23717902  .00001074  00000+0  19762-3 0  9999", "line2": "2 64694  98.0401 269.9775 0001436  82.9210 277.2158 14.67567435 22660"}}, "geometry": {"type": "Point", "coordinates": [-102.84420346403937, 63.10275472791166]}}, {"type": "Feature", "properties": {"norad_id": 64876, "name": "IONOSFERA-M 3", "group": "resource", "lat": 47.09001397581142, "lon": 129.125647433772, "alt_km": 815.3949508706883, "timestamp": "2025-12-03T15:48:02.759597+00:00", "meta": {"OBJECT_NAME": "IONOSFERA-M 3", "OBJECT_ID": "2025-155A", "EPOCH": "2025-12-03T08:25:26.133024", "MEAN_MOTION": 14.21437188, "ECCENTRICITY": 0.00023941, "INCLINATION": 98.577, "RA_OF_ASC_NODE": 299.4835, "ARG_OF_PERICENTER": 74.6546, "MEAN_ANOMALY": 285.4897, "EPHEMERIS_TYPE": 0, "CLASSIFICATION_TYPE": "U", "NORAD_CAT_ID": 64876, "ELEMENT_SET_NO": 999, "REV_AT_EPOCH": 1858, "BSTAR": 7.3664069e-05, "MEAN_MOTION_DOT": 1.18e-06, "MEAN_MOTION_DDOT": 0}, "tle": {"line1": "1 64876U 25155A   25337.35099691  .00000118  00000+0  73664-4 0  9990", "line2": "2 64876  98.5770 299.4835 0002394  74.6546 285.4897 14.21437188 18583"}}, "geometry": {"type": "Point", "coordinates": [129.125647433772, 47.09001397581142]}}, {"type": "Feature", "properties": {"norad_id": 64877, "name": "IONOSFERA-M 4", "group": "resource", "lat": -46.67912934826054, "lon": -51.089380794288935, "alt_km": 827.8602504591217, "timestamp": "2025-12-03T15:48:02.759606+00:00", "meta": {"OBJECT_NAME": "IONOSFERA-M 4", "OBJECT_ID": "2025-155B", "EPOCH": "2025-12-03T07:34:34.644000", "MEAN_MOTION": 14.21438279, "ECCENTRICITY": 0.00017472, "INCLINATION": 98.5768, "RA_OF_ASC_NODE": 299.3689, "ARG_OF_PERICENTER": 73.1948, "MEAN_ANOMALY": 286.9421, "EPHEMERIS_TYPE": 0, "CLASSIFICATION_TYPE": "U", "NORAD_CAT_ID": 64877, "ELEMENT_SET_NO": 999, "REV_AT_EPOCH": 1857, "BSTAR": 7.9753953e-05, "MEAN_MOTION_DOT": 1.32e-06, "MEAN_MOTION_DDOT": 0}, "tle": {"line1": "1 64877U 25155B   25337.31567875  .00000132  00000+0  79754-4 0  9993", "line2": "2 64877  98.5768 299.3689 0001747  73.1948 286.9421 14.21438279 18578"}}, "geometry": {"type": "Point", "coordinates": [-51.089380794288935, -46.67912934826054]}}, {"type": "Feature", "properties": {"norad_id": 64899, "name": "MICROCARB", "group": "resource", "lat": -73.72310568463857, "lon": -155.65830836472784, "alt_km": 660.4362199825164, "timestamp": "2025-12-03T15:48:02.759616+00:00", "meta": {"OBJECT_NAME": "MICROCARB", "OBJECT_ID": "2025-156A", "EPOCH": "2025-12-03T04:51:17.943264", "MEAN_MOTION": 14.72030926, "ECCENTRICITY": 0.0016515, "INCLINATION": 98.0035, "RA_OF_ASC_NODE": 52.7004, "ARG_OF_PERICENTER": 174.3539, "MEAN_ANOMALY": 185.7857, "EPHEMERIS_TYPE": 0, "CLASSIFICATION_TYPE": "U", "NORAD_CAT_ID": 64899, "ELEMENT_SET_NO": 999, "REV_AT_EPOCH": 1913, "BSTAR": 0.00017718925, "MEAN_MOTION_DOT": 1.065e-05, "MEAN_MOTION_DDOT": 0}, "tle": {"line1": "1 64899U 25156A   25337.20229101  .00001065  00000+0  17719-3 0  9991", "line2": "2 64899  98.0035  52.7004 0016515 174.3539 185.7857 14.72030926 19130"}}, "geometry": {"type": "Point", "coordinates": [-155.65830836472784, -73.72310568463857]}}, {"type": "Feature", "properties": {"norad_id": 64900, "name": "CO3D 3", "group": "resource", "lat": 34.84706525224539, "lon": 47.7901347422989, "alt_km": 561.5322291809334, "timestamp": "2025-12-03T15:48:02.759625+00:00", "meta": {"OBJECT_NAME": "CO3D 3", "OBJECT_ID": "2025-156B", "EPOCH": "2025-11-29T13:08:11.122944", "MEAN_MOTION": 15.11495615, "ECCENTRICITY": 0.01368669, "INCLINATION": 97.6723, "RA_OF_ASC_NODE": 49.0485, "ARG_OF_PERICENTER": 160.1625, "MEAN_ANOMALY": 200.5002, "EPHEMERIS_TYPE": 0, "CLASSIFICATION_TYPE": "U", "NORAD_CAT_ID": 64900, "ELEMENT_SET_NO": 999, "REV_AT_EPOCH": 1920, "BSTAR": 0.00046350794, "MEAN_MOTION_DOT": 9.779e-05, "MEAN_MOTION_DDOT": 0}, "tle": {"line1": "1 64900U 25156B   25333.54735096  .00009779  00000+0  46351-3 0  9996", "line2": "2 64900  97.6723  49.0485 0136866 160.1625 200.5002 15.11495615 19205"}}, "geometry": {"type": "Point", "coordinates": [47.7901347422989, 34.84706525224539]}}]}